[{"OBJECT_NAME":"FLOCK 4H-4","OBJECT_ID":"2025-276AT","EPOCH":"2026-03-09T18:25:08.103360","MEAN_MOTION":15.18459011,"ECCENTRICITY":0.00044168,"INCLINATION":97.4291,"RA_OF_ASC_NODE":144.0059,"ARG_OF_PERICENTER":7.9405,"MEAN_ANOMALY":352.1898,"EPHEMERIS_TYPE":0,"CLASSIFICATION_TYPE":"U","NORAD_CAT_ID":66707,"ELEMENT_SET_NO":999,"REV_AT_EPOCH":1532,"BSTAR":0.0003950899,"MEAN_MOTION_DOT":8.077e-5,"MEAN_MOTION_DDOT":0},{"OBJECT_NAME":"TRANSPORTER-15 OBJECT CY","OBJECT_ID":"2025-276CY","EPOCH":"2026-03-09T16:54:57.446784","MEAN_MOTION":15.1927389,"ECCENTRICITY":8.727e-5,"INCLINATION":97.4254,"RA_OF_ASC_NODE":144.0461,"ARG_OF_PERICENTER":100.2944,"MEAN_ANOMALY":259.8389,"EPHEMERIS_TYPE":0,"CLASSIFICATION_TYPE":"U","NORAD_CAT_ID":66760,"ELEMENT_SET_NO":999,"REV_AT_EPOCH":1532,"BSTAR":0.00030148075,"MEAN_MOTION_DOT":6.292e-5,"MEAN_MOTION_DDOT":0}]
